[{"OBJECT_NAME":"STARLINK-3561","OBJECT_ID":"2022-041Z","EPOCH":"2026-03-09T09:04:16.360032","MEAN_MOTION":15.08832024,"ECCENTRICITY":0.00013358,"INCLINATION":53.2165,"RA_OF_ASC_NODE":100.5193,"ARG_OF_PERICENTER":86.3847,"MEAN_ANOMALY":273.7298,"EPHEMERIS_TYPE":0,"CLASSIFICATION_TYPE":"U","NORAD_CAT_ID":52284,"ELEMENT_SET_NO":999,"REV_AT_EPOCH":21445,"BSTAR":6.352563e-5,"MEAN_MOTION_DOT":7.23e-6,"MEAN_MOTION_DDOT":0},{"OBJECT_NAME":"APEX R\/B","OBJECT_ID":"1994-046B","EPOCH":"2026-03-09T21:22:00.361344","MEAN_MOTION":14.28228355,"ECCENTRICITY":0.06427603,"INCLINATION":69.9225,"RA_OF_ASC_NODE":359.7806,"ARG_OF_PERICENTER":191.622,"MEAN_ANOMALY":166.9456,"EPHEMERIS_TYPE":0,"CLASSIFICATION_TYPE":"U","NORAD_CAT_ID":23198,"ELEMENT_SET_NO":999,"REV_AT_EPOCH":53288,"BSTAR":0.00062123339,"MEAN_MOTION_DOT":0.00017491,"MEAN_MOTION_DDOT":0}]
